{"type": "FeatureCollection", "features": [ {"type": "Feature", "properties": {"norad_id": 38726, "name": "FENGYUN 1C DEB", "group": "fengyun-1c-debris", "lat": -32.479703909104515, "lon": 34.56460644425793, "alt_km": 561.7474623310391, "timestamp": "2025-12-27T21:25:02.804779+00:00", "meta": {"OBJECT_NAME": "FENGYUN 1C DEB", "OBJECT_ID": "1999-025ETT", "EPOCH": "2025-12-26T20:02:26.983392", "MEAN_MOTION": 15.05352652, "ECCENTRICITY": 0.00225822, "INCLINATION": 99.134, "RA_OF_ASC_NODE": 27.4361, "ARG_OF_PERICENTER": 82.408, "MEAN_ANOMALY": 277.9706, "EPHEMERIS_TYPE": 0, "CLASSIFICATION_TYPE": "U", "NORAD_CAT_ID": 38726, "ELEMENT_SET_NO": 999, "REV_AT_EPOCH": 70067, "BSTAR": 0.0060607308, "MEAN_MOTION_DOT": 0.00088262, "MEAN_MOTION_DDOT": 0}, "tle": {"line1": "1 38726U 99025ETT 25360.83503453  .00088262  00000+0  60607-2 0  9994", "line2": "2 38726  99.1340  27.4361 0022582  82.4080 277.9706 15.05352652700670"}}, "geometry": {"type": "Point", "coordinates": [34.56460644425793, -32.479703909104515]}}, {"type": "Feature", "properties": {"norad_id": 38728, "name": "FENGYUN 1C DEB", "group": "fengyun-1c-debris", "lat": -33.62691982492579, "lon": 165.05055380595317, "alt_km": 711.8869712915202, "timestamp": "2025-12-27T21:25:02.804789+00:00", "meta": {"OBJECT_NAME": "FENGYUN 1C DEB", "OBJECT_ID": "1999-025ETV", "EPOCH": "2025-12-26T03:55:53.081184", "MEAN_MOTION": 14.70806488, "ECCENTRICITY": 0.00746168, "INCLINATION": 99.2616, "RA_OF_ASC_NODE": 349.3183, "ARG_OF_PERICENTER": 13.9217, "MEAN_ANOMALY": 52.9999, "EPHEMERIS_TYPE": 0, "CLASSIFICATION_TYPE": "U", "NORAD_CAT_ID": 38728, "ELEMENT_SET_NO": 999, "REV_AT_EPOCH": 65808, "BSTAR": 0.0014609826, "MEAN_MOTION_DOT": 9.262e-05, "MEAN_MOTION_DDOT": 0}, "tle": {"line1": "1 38728U 99025ETV 25360.16380881  .00009262  00000+0  14610-2 0  9996", "line2": "2 38728  99.2616 349.3183 0074616  13.9217  52.9999 14.70806488658087"}}, "geometry": {"type": "Point", "coordinates": [165.05055380595317, -33.62691982492579]}}, {"type": "Feature", "properties": {"norad_id": 38789, "name": "FENGYUN 1C DEB", "group": "fengyun-1c-debris", "lat": -59.7545057838528, "lon": 53.132492394190855, "alt_km": 766.5383724234471, "timestamp": "2025-12-27T21:25:02.804800+00:00", "meta": {"OBJECT_NAME": "FENGYUN 1C DEB", "OBJECT_ID": "1999-025EUD", "EPOCH": "2025-12-16T11:04:27.892416", "MEAN_MOTION": 14.45831603, "ECCENTRICITY": 0.02075268, "INCLINATION": 98.8566, "RA_OF_ASC_NODE": 236.7044, "ARG_OF_PERICENTER": 14.1855, "MEAN_ANOMALY": 164.1034, "EPHEMERIS_TYPE": 0, "CLASSIFICATION_TYPE": "U", "NORAD_CAT_ID": 38789, "ELEMENT_SET_NO": 999, "REV_AT_EPOCH": 61899, "BSTAR": 0.00050950207, "MEAN_MOTION_DOT": 2.303e-05, "MEAN_MOTION_DDOT": 0}, "tle": {"line1": "1 38789U 99025EUD 25350.46143394  .00002303  00000+0  50950-3 0  9998", "line2": "2 38789  98.8566 236.7044 0207526  14.1855 164.1034 14.45831603618998"}}, "geometry": {"type": "Point", "coordinates": [53.132492394190855, -59.7545057838528]}}, {"type": "Feature", "properties": {"norad_id": 38795, "name": "FENGYUN 1C DEB", "group": "fengyun-1c-debris", "lat": 7.264137392731038, "lon": -156.33568922710052, "alt_km": 874.3871502246393, "timestamp": "2025-12-27T21:25:02.804810+00:00", "meta": {"OBJECT_NAME": "FENGYUN 1C DEB", "OBJECT_ID": "1999-025EUK", "EPOCH": "2025-12-26T08:24:09.300096", "MEAN_MOTION": 13.29955469, "ECCENTRICITY": 0.0503292, "INCLINATION": 98.7034, "RA_OF_ASC_NODE": 21.2372, "ARG_OF_PERICENTER": 221.9888, "MEAN_ANOMALY": 134.1615, "EPHEMERIS_TYPE": 0, "CLASSIFICATION_TYPE": "U", "NORAD_CAT_ID": 38795, "ELEMENT_SET_NO": 999, "REV_AT_EPOCH": 78693, "BSTAR": 0.0021147, "MEAN_MOTION_DOT": 1.954e-05, "MEAN_MOTION_DDOT": 0}, "tle": {"line1": "1 38795U 99025EUK 25360.35010764  .00001954  00000+0  21147-2 0  9994", "line2": "2 38795  98.7034  21.2372 0503292 221.9888 134.1615 13.29955469786938"}}, "geometry": {"type": "Point", "coordinates": [-156.33568922710052, 7.264137392731038]}}, {"type": "Feature", "properties": {"norad_id": 38797, "name": "FENGYUN 1C DEB", "group": "fengyun-1c-debris", "lat": -75.25784771375369, "lon": -66.23217918986157, "alt_km": 1060.6703222235665, "timestamp": "2025-12-27T21:25:02.804821+00:00", "meta": {"OBJECT_NAME": "FENGYUN 1C DEB", "OBJECT_ID": "1999-025EUM", "EPOCH": "2025-12-26T10:32:41.326080", "MEAN_MOTION": 13.61616863, "ECCENTRICITY": 0.0245003, "INCLINATION": 99.4843, "RA_OF_ASC_NODE": 252.9147, "ARG_OF_PERICENTER": 186.2121, "MEAN_ANOMALY": 173.5966, "EPHEMERIS_TYPE": 0, "CLASSIFICATION_TYPE": "U", "NORAD_CAT_ID": 38797, "ELEMENT_SET_NO": 999, "REV_AT_EPOCH": 59469, "BSTAR": 0.00027425, "MEAN_MOTION_DOT": 2.14e-06, "MEAN_MOTION_DDOT": 0}, "tle": {"line1": "1 38797U 99025EUM 25360.43936720  .00000214  00000+0  27425-3 0  9998", "line2": "2 38797  99.4843 252.9147 0245003 186.2121 173.5966 13.61616863594699"}}, "geometry": {"type": "Point", "coordinates": [-66.23217918986157, -75.25784771375369]}}, {"type": "Feature", "properties": {"norad_id": 38799, "name": "FENGYUN 1C DEB", "group": "fengyun-1c-debris", "lat": -2.2688644546756915, "lon": 77.62603234868179, "alt_km": 663.0686392104371, "timestamp": "2025-12-27T21:25:02.804831+00:00", "meta": {"OBJECT_NAME": "FENGYUN 1C DEB", "OBJECT_ID": "1999-025EUP", "EPOCH": "2025-12-27T11:28:59.756160", "MEAN_MOTION": 14.48859697, "ECCENTRICITY": 0.0163115, "INCLINATION": 98.4042, "RA_OF_ASC_NODE": 76.8782, "ARG_OF_PERICENTER": 305.1924, "MEAN_ANOMALY": 53.4086, "EPHEMERIS_TYPE": 0, "CLASSIFICATION_TYPE": "U", "NORAD_CAT_ID": 38799, "ELEMENT_SET_NO": 999, "REV_AT_EPOCH": 64252, "BSTAR": 0.0010705, "MEAN_MOTION_DOT": 4.742e-05, "MEAN_MOTION_DDOT": 0}, "tle": {"line1": "1 38799U 99025EUP 25361.47846940  .00004742  00000+0  10705-2 0  9991", "line2": "2 38799  98.4042  76.8782 0163115 305.1924  53.4086 14.48859697642520"}}, "geometry": {"type": "Point", "coordinates": [77.62603234868179, -2.2688644546756915]}}, {"type": "Feature", "properties": {"norad_id": 38801, "name": "FENGYUN 1C DEB", "group": "fengyun-1c-debris", "lat": 50.15973011103986, "lon": 41.68591515055021, "alt_km": 854.6874374176796, "timestamp": "2025-12-27T21:25:02.804842+00:00", "meta": {"OBJECT_NAME": "FENGYUN 1C DEB", "OBJECT_ID": "1999-025EUR", "EPOCH": "2025-12-26T09:52:03.215712", "MEAN_MOTION": 14.24870894, "ECCENTRICITY": 0.0346269, "INCLINATION": 98.3719, "RA_OF_ASC_NODE": 50.4355, "ARG_OF_PERICENTER": 311.7065, "MEAN_ANOMALY": 61.6244, "EPHEMERIS_TYPE": 0, "CLASSIFICATION_TYPE": "U", "NORAD_CAT_ID": 38801, "ELEMENT_SET_NO": 999, "REV_AT_EPOCH": 64555, "BSTAR": 0.00052893, "MEAN_MOTION_DOT": 2.26e-05, "MEAN_MOTION_DDOT": 0}, "tle": {"line1": "1 38801U 99025EUR 25360.41114833  .00002260  00000+0  52893-3 0  9995", "line2": "2 38801  98.3719  50.4355 0346269 311.7065  61.6244 14.24870894645559"}}, "geometry": {"type": "Point", "coordinates": [41.68591515055021, 50.15973011103986]}}, {"type": "Feature", "properties": {"norad_id": 38803, "name": "FENGYUN 1C DEB", "group": "fengyun-1c-debris", "lat": -36.18273919406898, "lon": 179.55180476734904, "alt_km": 851.7511147474997, "timestamp": "2025-12-27T21:25:02.804852+00:00", "meta": {"OBJECT_NAME": "FENGYUN 1C DEB", "OBJECT_ID": "1999-025EUT", "EPOCH": "2025-12-25T22:51:47.888640", "MEAN_MOTION": 14.23791722, "ECCENTRICITY": 0.0063593, "INCLINATION": 99.1379, "RA_OF_ASC_NODE": 4.2982, "ARG_OF_PERICENTER": 358.616, "MEAN_ANOMALY": 1.4832, "EPHEMERIS_TYPE": 0, "CLASSIFICATION_TYPE": "U", "NORAD_CAT_ID": 38803, "ELEMENT_SET_NO": 999, "REV_AT_EPOCH": 60400, "BSTAR": 0.0021621, "MEAN_MOTION_DOT": 5.004e-05, "MEAN_MOTION_DDOT": 0}, "tle": {"line1": "1 38803U 99025EUT 25359.95263760  .00005004  00000+0  21621-2 0  9991", "line2": "2 38803  99.1379   4.2982 0063593 358.6160   1.4832 14.23791722604008"}}, "geometry": {"type": "Point", "coordinates": [179.55180476734904, -36.18273919406898]}}, {"type": "Feature", "properties": {"norad_id": 38809, "name": "FENGYUN 1C DEB", "group": "fengyun-1c-debris", "lat": -43.54927618974338, "lon": -176.67233150129735, "alt_km": 755.4485318587749, "timestamp": "2025-12-27T21:25:02.804863+00:00", "meta": {"OBJECT_NAME": "FENGYUN 1C DEB", "OBJECT_ID": "1999-025EUZ", "EPOCH": "2025-12-23T19:49:43.140000", "MEAN_MOTION": 14.18201814, "ECCENTRICITY": 0.02225154, "INCLINATION": 98.5892, "RA_OF_ASC_NODE": 7.6495, "ARG_OF_PERICENTER": 295.9236, "MEAN_ANOMALY": 61.9159, "EPHEMERIS_TYPE": 0, "CLASSIFICATION_TYPE": "U", "NORAD_CAT_ID": 38809, "ELEMENT_SET_NO": 999, "REV_AT_EPOCH": 69363, "BSTAR": 0.00046429524, "MEAN_MOTION_DOT": 1.172e-05, "MEAN_MOTION_DDOT": 0}, "tle": {"line1": "1 38809U 99025EUZ 25357.82619375  .00001172  00000+0  46430-3 0  9996", "line2": "2 38809  98.5892   7.6495 0222515 295.9236  61.9159 14.18201814693633"}}, "geometry": {"type": "Point", "coordinates": [-176.67233150129735, -43.54927618974338]}}, {"type": "Feature", "properties": {"norad_id": 38813, "name": "FENGYUN 1C DEB", "group": "fengyun-1c-debris", "lat": 75.17767919579175, "lon": -38.586605014462556, "alt_km": 812.7072778570564, "timestamp": "2025-12-27T21:25:02.804873+00:00", "meta": {"OBJECT_NAME": "FENGYUN 1C DEB", "OBJECT_ID": "1999-025EVD", "EPOCH": "2025-12-26T06:09:37.585728", "MEAN_MOTION": 14.20193904, "ECCENTRICITY": 0.0006655, "INCLINATION": 99.346, "RA_OF_ASC_NODE": 358.173, "ARG_OF_PERICENTER": 79.7045, "MEAN_ANOMALY": 280.4879, "EPHEMERIS_TYPE": 0, "CLASSIFICATION_TYPE": "U", "NORAD_CAT_ID": 38813, "ELEMENT_SET_NO": 999, "REV_AT_EPOCH": 48442, "BSTAR": 0.00052062, "MEAN_MOTION_DOT": 1.063e-05, "MEAN_MOTION_DDOT": 0}, "tle": {"line1": "1 38813U 99025EVD 25360.25668502  .00001063  00000+0  52062-3 0  9995", "line2": "2 38813  99.3460 358.1730 0006655  79.7045 280.4879 14.20193904484420"}}, "geometry": {"type": "Point", "coordinates": [-38.586605014462556, 75.17767919579175]}}]}